IRIDIUM 921 [-]         
1 24873U 97034E   23287.36808889  .00029772  00000+0  11422-2 0  9997
2 24873  86.3883  48.8488 0006770 105.7714 254.4279 15.26330563437671
IRIDIUM 26 [-]          
1 24903U 97043A   23286.92387912  .00000973  00000+0  32817-3 0  9995
2 24903  86.4021   7.4950 0002043  87.9822 272.1608 14.36039360368841
IRIDIUM 22 [-]          
1 24907U 97043E   23286.78979225  .00000972  00000+0  33517-3 0  9994
2 24907  86.4027  10.5896 0002213  92.3348 267.8101 14.34946607368924
DUMMY MASS 1 [-]        
1 24925U 97048A   23287.40325872  .00001195  00000+0  13404-3 0  9993
2 24925  86.3346  57.9564 0008155 138.8524 221.3316 14.85873140414491
DUMMY MASS 2 [-]        
1 24926U 97048B   23286.86116383  .00001281  00000+0  14470-3 0  9998
2 24926  86.3342  59.7071 0008491 151.1712 208.9983 14.85633403413969
IRIDIUM 29 [-]          
1 24944U 97051A   23286.87103225  .00000848  00000+0  28894-3 0  9997
2 24944  86.3992  40.5260 0002348  92.4185 267.7280 14.35404554365400
IRIDIUM 33 [-]          
1 24946U 97051C   23286.81314102  .00000841  00000+0  29357-3 0  9999
2 24946  86.3908  39.8263 0005804 278.2686  81.7851 14.34142832364968
IRIDIUM 28 [-]          
1 24948U 97051E   23286.82870655  .00001192  00000+0  40130-3 0  9994
2 24948  86.4001  38.4120 0001721  87.0330 273.1064 14.36338689365983
